FLOCK 3P-13             
1 42040U 17008CW  18006.71979127  .00001062  00000-0  47234-4 0  9997
2 42040  97.4721  72.4999 0006793 213.2882 146.7928 15.23695862 48683
FLOCK 3P-55             
1 42041U 17008CX  18006.10755475  .00001533  00000-0  66812-4 0  9995
2 42041  97.4719  71.9338 0006454 219.5335 140.5432 15.23724206 49439
FLOCK 3P-56             
1 42042U 17008CY  18006.85885664  .00002128  00000-0  90110-4 0  9991
2 42042  97.4714  72.7525 0006463 215.5615 144.5193 15.24274243 49349
FLOCK 3P-81             
1 42043U 17008CZ  18006.15256072  .00001058  00000-0  46849-4 0  9991
2 42043  97.4742  71.9875 0007841 196.6932 163.4048 15.23843645 48617
FLOCK 3P-87             
1 42044U 17008DA  18005.90092681  .00001225  00000-0  53905-4 0  9995
2 42044  97.4739  71.6943 0008073 194.8355 165.2646 15.23757550 48729
FLOCK 3P-29             
1 42045U 17008DB  18006.75634786  .00002014  00000-0  86645-4 0  9992
2 42045  97.4721  72.4647 0007902 188.0843 172.0268 15.23781805 48702
FLOCK 3P-82             
1 42046U 17008DC  18006.42187705  .00002156  00000-0  92085-4 0  9993
2 42046  97.4736  72.2316 0008093 193.6397 166.4623 15.23952562 48700
FLOCK 3P-78             
1 42047U 17008DD  18005.89979816  .00001568  00000-0  68101-4 0  9994
2 42047  97.4742  71.7079 0007960 194.6768 165.4239 15.23786678 48551
FLOCK 3P-74             
1 42048U 17008DE  18006.36963026  .00001754  00000-0  75933-4 0  9992
2 42048  97.4745  72.1633 0008296 194.1449 165.9556 15.23738970 48627
FLOCK 3P-31             
1 42049U 17008DF  18006.10852511  .00001810  00000-0  78222-4 0  9998
2 42049  97.4721  71.8011 0007908 191.8699 168.2353 15.23759440 48040
FLOCK 3P-83             
1 42050U 17008DG  18005.91256716  .00002587  00000-0  11059-3 0  9999
2 42050  97.4737  71.6870 0008095 196.4122 163.6854 15.23742046 49286
FLOCK 3P-72             
1 42051U 17008DH  18006.48394715  .00000623  00000-0  28988-4 0  9994
2 42051  97.4749  72.3241 0007822 192.9450 167.1587 15.23626762 46962
LEMUR-2-REDFERN-GOES    
1 42059U 98067LA  18006.15275566  .00017447  00000-0  16606-3 0  9997
2 42059  51.6367  92.8650 0006278 335.8233  24.2468 15.66911907 47732
LEMUR-2-TRUTNA          
1 42067U 98067LC  18005.80719998  .00043453  00000-0  24429-3 0  9997
2 42067  51.6404  85.2467 0005298 337.9962  22.0811 15.78768943 47638
LEMUR-2-AUSTINTACIOUS   
1 42068U 98067LD  18006.49678439  .00018159  00000-0  15818-3 0  9995
2 42068  51.6372  89.1602 0005905 329.7382  30.3273 15.69071565 47740
LEMUR-2-TRUTNAHD        
1 42069U 98067LE  18006.21604000  .00018427  00000-0  16959-3 0  9994
2 42069  51.6377  91.8110 0005632 334.6486  25.4234 15.67706006 47731
HAVELSAT                
1 42700U 98067LH  18006.68799044  .00012356  00000-0  13523-3 0  9999
2 42700  51.6380  95.7147 0005075   2.1616 357.9399 15.63716991 36691
SOMP 2                  
1 42701U 98067LJ  18006.85967232  .00013070  00000-0  14560-3 0  9991
2 42701  51.6377  95.3616 0005074   2.4086 357.6932 15.63197539 36701
COLUMBIA                
1 42702U 98067LK  18006.68836478  .00085719  00000-0  43793-3 0  9999
2 42702  51.6317  86.6208 0006364 351.5424   8.5469 15.80589069 36735
SGSAT                   
1 42703U 98067LL  18006.69575973  .00041207  00000-0  30395-3 0  9999
2 42703  51.6339  90.4549 0003313 316.4364  43.6373 15.72578822 36678
CXBN-2                  
1 42704U 98067LM  18006.60507613  .00012892  00000-0  14304-3 0  9997
2 42704  51.6383  96.6672 0002001 306.4856  53.5954 15.63322582 36597
ICECUBE                 
1 42705U 98067LN  18006.64952143  .00022854  00000-0  22364-3 0  9998
2 42705  51.6414  94.7488 0002420 313.4757  46.6037 15.66029576 36685
PHOENIX                 
1 42706U 98067LP  18006.65491469  .00012788  00000-0  14298-3 0  9991
2 42706  51.6380  96.2471 0001221 326.7448  33.3469 15.63133159 36591
X-CUBESAT               
1 42707U 98067LQ  18006.69708686  .00013752  00000-0  14960-3 0  9996
2 42707  51.6361  95.7574 0001488 324.8589  35.2307 15.63763583 36591
QBEE50-LTU-OC           
1 42708U 98067LR  18006.71396251  .00013359  00000-0  14726-3 0  9994
2 42708  51.6375  95.8772 0001454 326.1397  33.9505 15.63451469 36551
ALTAIR PATHFINDER       
1 42711U 98067LS  18006.86853649  .00008418  00000-0  10694-3 0  9993
2 42711  51.6380  97.6662 0003836 300.2491  59.8123 15.60329729 36253
SHARC                   
1 42712U 98067LT  18006.71897420  .00006653  00000-0  88682-4 0  9995
2 42712  51.6396  98.9406 0002070 310.1142  49.9669 15.59456550 36462
ZA-AEROSAT              
1 42713U 98067LU  18006.69105143  .00010620  00000-0  12482-3 0  9990
2 42713  51.6373  97.2339 0002194 293.9583  66.1181 15.62053406 36242
LINK                    
1 42714U 98067LV  18006.61236542  .00019903  00000-0  19525-3 0  9999
2 42714  51.6351  95.1802 0002608 300.7010  59.3729 15.66064072 36374
CSUNSAT 1               
1 42715U 98067LW  18006.68385269  .00011038  00000-0  12839-3 0  9990
2 42715  51.6384  97.1881 0004005 290.0661  69.9902 15.62275527 36247
UPSAT                   
1 42716U 98067LX  18006.68959107  .00016308  00000-0  16678-3 0  9999
2 42716  51.6372  94.9700 0003610   0.3886 359.7112 15.65174793 36409
SPACECUBE               
1 42717U 98067LY  18006.66920354  .00013258  00000-0  14678-3 0  9999
2 42717  51.6371  96.3339 0003654   2.3932 357.7079 15.63346779 35621
HOOPOE                  
1 42718U 98067LZ  18006.67810554  .00014530  00000-0  15447-3 0  9990
2 42718  51.6377  95.6440 0003623 359.1680   0.9309 15.64295164 35638
CHALLENGER              
1 42721U 98067MA  18006.85385815  .00026490  00000-0  24201-3 0  9997
2 42721  51.6358  93.0413 0006140 342.1634  17.9146 15.67629526 35386
NJUST-1                 
1 42722U 98067MB  18006.67483650  .00009717  00000-0  11701-3 0  9998
2 42722  51.6381  97.8761 0006318 346.3284  13.7537 15.61526703 35302
UNSW-ECO                
1 42723U 98067MC  18006.84067076  .00016230  00000-0  17156-3 0  9996
2 42723  51.6386  95.2381 0005970 343.8351  16.2453 15.64328046 35339
DUTHSAT                 
1 42724U 98067MD  18006.69984913  .00023647  00000-0  22197-3 0  9999
2 42724  51.6366  94.2803 0005410 343.2069  16.8747 15.67034627 35250
LILACSAT-1              
1 42725U 98067ME  18006.69619368  .00011817  00000-0  13569-3 0  9998
2 42725  51.6380  97.2706 0005398 347.2802  12.8056 15.62523479 35214
NSIGHT-1                
1 42726U 98067MF  18006.71131665  .00005491  00000-0  75923-4 0  9995
2 42726  51.6396  99.6348 0005788 353.3307   6.7608 15.58876732 35191
SNUSAT-1                
1 42727U 98067MG  18006.69902467  .00012096  00000-0  13902-3 0  9996
2 42727  51.6366  97.2663 0006941 310.6214  49.4175 15.62463800 35183
QBITO                   
1 42728U 98067MH  18006.70116912  .00013593  00000-0  15075-3 0  9997
2 42728  51.6396  96.5757 0003067 350.7932   9.3006 15.63277714 35031
AALTO-2                 
1 42729U 98067MJ  18006.69792169  .00013511  00000-0  14930-3 0  9999
2 42729  51.6380  96.5348 0003068 350.1253   9.9681 15.63377543 35049
SUSAT                   
1 42730U 98067MK  18006.72582656  .00012840  00000-0  14486-3 0  9993
2 42730  51.6376  96.7140 0003145 348.4453  11.6468 15.62895291 35032
I-INSPIRE II            
1 42731U 98067ML  18006.69086924  .00016933  00000-0  17660-3 0  9991
2 42731  51.6367  95.7083 0006251 297.8105  62.2256 15.64631876 35092
POLYITAN-2-SAU          
1 42732U 98067MM  18006.68424348  .00012044  00000-0  13275-3 0  9994
2 42732  51.6376  96.4222 0006296 296.5096  63.5253 15.63556923 35088
SNUSAT-1B               
1 42733U 98067MN  18006.66308968  .00012849  00000-0  14494-3 0  9999
2 42733  51.6377  97.0362 0006338 299.0114  61.0245 15.62885814 35074
EXALTA-1                
1 42734U 98067MP  18006.69658379  .00017406  00000-0  18127-3 0  9998
2 42734  51.6363  95.7478 0007510 320.9150  39.1301 15.64636440 35047
AOXIANG-1               
1 42735U 98067MQ  18006.72742918  .00010134  00000-0  12102-3 0  9994
2 42735  51.6374  97.4682 0006835 343.3650  16.7119 15.61685331 36442
BEEAGLESAT              
1 42736U 98067MR  18006.69642973  .00011681  00000-0  13531-3 0  9996
2 42736  51.6371  97.2596 0006718 341.6488  18.4262 15.62303290 35137
ATLANTIS                
1 42737U 98067MS  18006.66504162  .00055584  00000-0  34747-3 0  9993
2 42737  51.6304  89.4686 0007117 337.6059  22.4629 15.76258436 35127
LEMUR-2-ANGELA          
1 42752U 17019B   18006.80071842  .00001229  00000-0  56416-4 0  9993
2 42752  51.6407 144.5781 0010213 353.8887   6.1967 15.28476568 32426
LEMUR-2-JENNYBARNA      
1 42753U 17019C   18006.84027456  .00002832  00000-0  11198-3 0  9998
2 42753  51.6408 144.0997 0010085 353.7573   6.3280 15.28870156 32386
LEMUR-2-ROBMOORE        
1 42754U 17019D   18006.81095938  .00000381  00000-0  26349-4 0  9998
2 42754  51.6410 144.6417 0010303 356.6988   3.3922 15.28399810 32404
LEMUR-2-SPIROVISION     
1 42755U 17019E   18006.78805369  .00002784  00000-0  11066-3 0  9990
2 42755  51.6394 144.4913 0010044 355.8798   4.2098 15.28765824 32290
UCLSAT                  
1 42765U 17036A   18005.91041505  .00001108  00000-0  52439-4 0  9997
2 42765  97.4246  68.2118 0010381 287.4253  72.5848 15.21410778 30629
LITUANICASAT-2          
1 42768U 17036D   18005.90269894  .00001770  00000-0  83530-4 0  9993
2 42768  97.4254  67.9266 0014462 274.6751  85.2832 15.20682077 29899
LEMUR-2-SHAINAJOHL      
1 42771U 17036G   18006.81560644  .00001149  00000-0  55492-4 0  9991
2 42771  97.4249  68.8412 0013575 270.5341  89.4339 15.20588407 29973
LEMUR-2-XUENITERENCE    
1 42772U 17036H   18006.41501693  .00001340  00000-0  64146-4 0  9996
2 42772  97.4248  68.4590 0013222 271.8943  88.0778 15.20631120 29914
LEMUR-2-LUCYBRYCE       
1 42773U 17036J   18006.39849193  .00001531  00000-0  72392-4 0  9998
2 42773  97.4253  68.4847 0013073 271.0726  88.9011 15.20852584 29919
